STARLINK-2620           
1 48453U 21040AB  26068.61827280  .00013618  00000+0  47094-3 0  9992
2 48453  53.1616 178.4535 0002071  50.3086 309.8098 15.30208340266673
TRANSPORTER-11 OBJECT A 
1 60468U 24149A   26068.74646182  .00010774  00000+0  36054-3 0  9993
2 60468  97.3780 149.0949 0003110 191.0010 169.1164 15.31141332 86830
